SARSAT 7 (NOAA 15)      
1 25338U 98030A   16043.53070622  .00000082  00000-0  53516-4 0  9994
2 25338  98.7820  47.4376 0010486 185.3139 174.7931 14.25702000923082
GPS BIIR-07             
1 26690U 01004A   16043.47566782  .00000036  00000-0  00000+0 0  9995
2 26690  53.0007 178.3327 0168598 250.6185  93.7066  2.00564196110179
METEOSAT-8 (MSG-1)      
1 27509U 02040B   16043.21908966  .00000003  00000-0  00000+0 0  9996
2 27509   3.9784  60.2300 0001805 231.7974 292.0836  1.00270345 49368
GPS BIIR-08             
1 27663U 03005A   16043.20065366 -.00000057  00000-0  00000+0 0  9996
2 27663  56.7744   3.9887 0084734  17.1607 223.0138  2.00560253 95525
INSAT 3A                
1 27714U 03013A   16043.01395895 -.00000274  00000-0  00000+0 0  9995
2 27714   0.0834 266.7910 0002813 143.4014 189.7990  1.00271911 47062
GPS BIIR-11             
1 28190U 04009A   16043.36402623 -.00000024  00000-0  00000+0 0  9999
2 28190  55.7136  65.3977 0111101  37.9196 115.1687  2.00386078 87206
GPS BIIR-12             
1 28361U 04023A   16043.28836773  .00000051  00000-0  00000+0 0  9992
2 28361  54.2396 239.9886 0105958 211.3235 155.5362  2.00556751 85293
GPS BIIR-13             
1 28474U 04045A   16043.34311791 -.00000010  00000-0  00000+0 0  9992
2 28474  53.9986 117.8886 0156007 236.2786 173.5110  2.00557654 82652
SARSAT 10 (NOAA 18)     
1 28654U 05018A   16043.59328151  .00000063  00000-0  59793-4 0  9993
2 28654  99.1969  47.2623 0014438  10.8417 349.3062 14.12267032553003
GPS BIIR-14M            
1 28874U 05038A   16043.23484144 -.00000024  00000-0  00000+0 0  9995
2 28874  55.8809  62.5934 0111858 248.5826 190.5467  2.00567885 76055
MSG-2                   
1 28912U 05049B   16043.21939211  .00000046  00000-0  00000+0 0  9991
2 28912   1.2615  66.1219 0003297 250.7115 273.0900  1.00272120 37192
GOES 13                 
1 29155U 06018A   16042.81525691 -.00000265  00000-0  00000+0 0  9990
2 29155   0.3223  95.9221 0002817 305.4233 318.6501  1.00264886 35636
SARSAT 11 (METOP-A)     
1 29499U 06044A   16043.56052258  .00000115  00000-0  72792-4 0  9992
2 29499  98.7136 104.2861 0002113 124.6546  12.8936 14.21474786483431
GPS BIIR-16M            
1 29601U 06052A   16043.17538888 -.00000058  00000-0  00000+0 0  9996
2 29601  56.7445   2.9151 0057024  36.4860 323.8969  2.00550983 67683
GPS BIIR-17M            
1 32260U 07047A   16043.00256271  .00000051  00000-0  00000+0 0  9993
2 32260  53.3693 236.7811 0079527  26.1190 334.2911  2.00548543 61068
GPS BIIR-18M            
1 32384U 07062A   16043.55292936 -.00000025  00000-0  00000+0 0  9997
2 32384  55.9346  63.1319 0011792 318.3167 217.0896  2.00570444 59807
SARSAT 12 (NOAA 19)     
1 33591U 09005A   16043.52775210  .00000185  00000-0  12547-3 0  9994
2 33591  99.0242 359.3817 0013377 209.6547 150.3866 14.12038750361403
GOES 14                 
1 35491U 09033A   16042.89791813 -.00000107  00000-0  00000+0 0  9994
2 35491   0.0258 193.8863 0004310  44.3332 121.7127  1.00271709 24277
GOES 15                 
1 36411U 10008A   16042.98289357  .00000074  00000-0  00000+0 0  9998
2 36411   0.0777 252.9451 0001911 357.1380 109.8701  1.00271126 21802
ELEKTRO-L 1             
1 37344U 11001A   16042.83673056 -.00000114  00000-0  00000+0 0  9991
2 37344   1.4544  79.8952 0004938 154.8811 283.7725  1.00273383 18586
GLONASS-K 1             
1 37372U 11009A   16043.41736875  .00000005  00000-0  00000+0 0  9992
2 37372  65.1689  81.2576 0009142 240.1859  91.3800  2.13103045 38587
GPS BIIF-2              
1 37753U 11036A   16043.57246759 -.00000009  00000-0  00000+0 0  9994
2 37753  55.2173 120.3569 0049386  24.3384 314.4596  2.00565786 33502
LUCH 5A                 
1 37951U 11074B   16042.81509065 -.00000060  00000-0  00000+0 0  9991
2 37951   1.8797 222.8011 0003026 102.8671 276.1215  1.00274883 15307
MSG-3                   
1 38552U 12035B   16042.60681409 -.00000014  00000-0  00000+0 0  9996
2 38552   0.5336  87.1730 0001031 222.8724  49.9205  1.00280828 13338
SARSAT 13 (METOP-B)     
1 38771U 12049A   16042.88425394 -.00000043  00000-0  30743-6 0  9999
2 38771  98.6647 103.9008 0000977 138.4565 309.9058 14.21503317176470
GPS BIIF-3              
1 38833U 12053A   16043.09202587 -.00000027  00000-0  00000+0 0  9992
2 38833  54.4692 298.7948 0041671  17.8217 342.3870  2.00567894 24575
GSAT0103 (GALILEO-FM3)  
1 38857U 12055A   16040.93913200  .00000052  00000-0  00000+0 0  9998
2 38857  54.9529 205.7070 0002350 190.1953 169.7551  1.70473546 20728
GSAT0104 (GALILEO-FM4)  
1 38858U 12055B   16042.63338345 -.00000009  00000-0  10000-3 0  9997
2 38858  54.9534 205.6582 0001773 168.1729 191.7911  1.70472226 20691
GPS BIIF-4              
1 39166U 13023A   16043.44983387 -.00000027  00000-0  00000+0 0  9993
2 39166  55.5912  59.7605 0031521   7.5785 352.5125  2.00568406 20107
INSAT-3D                
1 39216U 13038B   16042.38069373 -.00000171  00000-0  00000+0 0  9997
2 39216   0.0682 260.6843 0001210  39.6585  59.6197  1.00272459  9419
GPS BIIF-5              
1 39533U 14008A   16042.94991715 -.00000033  00000-0  00000+0 0  9990
2 39533  54.6228 304.0143 0016773 181.0804 178.9755  2.00567417 14462
LUCH 5V                 
1 39727U 14023A   16041.68966050 -.00000281  00000-0  00000+0 0  9991
2 39727   3.6388 300.3000 0003401  22.6956 160.2000  1.00270498524621
GPS BIIF-6              
1 39741U 14026A   16043.22621417 -.00000006  00000-0  00000+0 0  9992
2 39741  55.2084 119.8867 0005174 254.0267 105.9729  2.00567886 12742
GPS BIIF-7              
1 40105U 14045A   16043.32039298  .00000053  00000-0  00000+0 0  9991
2 40105  54.7576 239.6313 0004327 119.8176 240.2418  2.00567294 11190
GSAT0201                
1 40128U 14050A   16041.40645254 -.00000032  00000-0  00000-0 0  9993
2 40128  49.9973  64.9845 1580650  45.9285 326.1552  1.85519879  8221
GSAT0202                
1 40129U 14050B   16042.21474620 -.00000039  00000-0  00000+0 0  9997
2 40129  50.0550  63.9302 1580791  47.0983 325.2312  1.85520633 10347
GPS BIIF-8              
1 40294U 14068A   16043.18785531  .00000041  00000-0  00000+0 0  9994
2 40294  54.9638 180.0231 0003532 215.5366 144.4061  2.00552229  9413
GLONASS-K 2             
1 40315U 14075A   16043.53085766 -.00000038  00000-0  00000+0 0  9995
2 40315  64.6763 322.4871 0017241 240.8733 300.0409  2.13101495  9355
GPS BIIF-9              
1 40534U 15013A   16043.32804041 -.00000063  00000-0  00000+0 0  9991
2 40534  55.0442 359.6553 0008917 338.0951  21.8660  2.00559520  6487
GSAT0203                
1 40544U 15017A   16041.26645626 -.00000004  00000-0  00000+0 0  9994
2 40544  55.2492  85.9130 0004665 238.9924 121.0478  1.70475677  5417
GSAT0204                
1 40545U 15017B   16043.39630890 -.00000016  00000-0  00000+0 0  9991
2 40545  55.2573  85.8612 0002751 218.2129 141.8423  1.70475767  5469
GPS BIIF-10             
1 40730U 15033A   16042.48962130 -.00000023  00000-0  00000+0 0  9997
2 40730  55.1273  59.6927 0020237 279.3329  80.4852  2.00566781  4226
GSAT 0205               
1 40889U 15045A   16041.87057150 -.00000052  00000-0  00000+0 0  9996
2 40889  57.3313 325.5005 0004851 338.4329  21.5819  1.70474263  2588
GSAT 0206               
1 40890U 15045B   16040.91739671 -.00000051  00000-0  00000-0 0  9997
2 40890  57.3291 325.5244 0003451 329.9592  30.0453  1.70474232  2598
